start=new Date('2021-09-06T00:00:00.000Z').valueOf();
sats=[{"RCS_SIZE":"LARGE","EPOCH":"2021-09-05T17:04:27.962400","PERIOD":"95.592","EPHEMERIS_TYPE":"0","TLE_LINE2":"2 48146  53.0570   0.6892 0001218 130.4060 229.7035 15.06397897 24331","NORAD_CAT_ID":"48146","GP_ID":"184166153","DECAY_DATE":null,"TLE_LINE1":"1 48146U 21027BG  21248.71143475  .00001416  00000-0  11395-3 0  9998","MEAN_MOTION_DOT":"0.00001416","TIME_SYSTEM":"UTC","OBJECT_ID":"2021-027BG","MEAN_ANOMALY":"229.7035","COUNTRY_CODE":"US","APOAPSIS":"548.064","ECCENTRICITY":"0.00012180","CLASSIFICATION_TYPE":"U","ARG_OF_PERICENTER":"130.4060","FILE":"3109348","MEAN_MOTION":"15.06397897","RA_OF_ASC_NODE":"0.6892","REF_FRAME":"TEME","LAUNCH_DATE":"2021-04-07","PERIAPSIS":"546.376","BSTAR":"0.00011395000000","MEAN_ELEMENT_THEORY":"SGP4","CENTER_NAME":"EARTH","INCLINATION":"53.0570","OBJECT_TYPE":"PAYLOAD","MEAN_MOTION_DDOT":"0.0000000000000","SITE":"AFETR","REV_AT_EPOCH":"2433","OBJECT_NAME":"STARLINK-2489","ELEMENT_SET_NO":"999","SEMIMAJOR_AXIS":"6925.355"},{"INCLINATION":"53.0573","MEAN_MOTION_DDOT":"0.0000000000000","OBJECT_TYPE":"PAYLOAD","CENTER_NAME":"EARTH","OBJECT_NAME":"STARLINK-2490","REV_AT_EPOCH":"2425","ELEMENT_SET_NO":"999","SEMIMAJOR_AXIS":"6925.345","SITE":"AFETR","REF_FRAME":"TEME","LAUNCH_DATE":"2021-04-07","RA_OF_ASC_NODE":"5.8892","MEAN_MOTION":"15.06401286","MEAN_ELEMENT_THEORY":"SGP4","PERIAPSIS":"546.554","BSTAR":"0.00013069000000","OBJECT_ID":"2021-027BH","MEAN_ANOMALY":"245.2536","TIME_SYSTEM":"UTC","MEAN_MOTION_DOT":"0.00001666","CLASSIFICATION_TYPE":"U","ECCENTRICITY":"0.00009460","FILE":"3109348","ARG_OF_PERICENTER":"114.8551","COUNTRY_CODE":"US","APOAPSIS":"547.865","PERIOD":"95.592","EPHEMERIS_TYPE":"0","EPOCH":"2021-09-05T15:25:36.572160","RCS_SIZE":"LARGE","TLE_LINE1":"1 48147U 21027BH  21248.64278440  .00001666  00000-0  13069-3 0  9999","GP_ID":"184166400","TLE_LINE2":"2 48147  53.0573   5.8892 0000946 114.8551 245.2536 15.06401286 24258","NORAD_CAT_ID":"48147","DECAY_DATE":null},{"APOAPSIS":"548.174","COUNTRY_CODE":"US","FILE":"3109348","ARG_OF_PERICENTER":"117.8455","CLASSIFICATION_TYPE":"U","ECCENTRICITY":"0.00013470","TIME_SYSTEM":"UTC","MEAN_MOTION_DOT":"-0.00000499","MEAN_ANOMALY":"242.2671","OBJECT_ID":"2021-027BJ","DECAY_DATE":null,"NORAD_CAT_ID":"48148","TLE_LINE2":"2 48148  53.0585   0.8448 0001347 117.8455 242.2671 15.06390962 24318","GP_ID":"184165652","TLE_LINE1":"1 48148U 21027BJ  21248.67826954 -.00000499  00000-0 -14639-4 0  9992","EPOCH":"2021-09-05T16:16:42.488256","RCS_SIZE":"LARGE","EPHEMERIS_TYPE":"0","PERIOD":"95.593","SITE":"AFETR","ELEMENT_SET_NO":"999","SEMIMAJOR_AXIS":"6925.376","OBJECT_NAME":"STARLINK-2491","REV_AT_EPOCH":"2431","CENTER_NAME":"EARTH","MEAN_MOTION_DDOT":"0.0000000000000","OBJECT_TYPE":"PAYLOAD","INCLINATION":"53.0585","BSTAR":"-0.00001463900000","PERIAPSIS":"546.308","MEAN_ELEMENT_THEORY":"SGP4","MEAN_MOTION":"15.06390962","RA_OF_ASC_NODE":"0.8448","LAUNCH_DATE":"2021-04-07","REF_FRAME":"TEME"},{"RA_OF_ASC_NODE":"341.1502","MEAN_MOTION":"15.06395712","LAUNCH_DATE":"2021-04-07","REF_FRAME":"TEME","BSTAR":"0.00009612500000","PERIAPSIS":"546.417","MEAN_ELEMENT_THEORY":"SGP4","CENTER_NAME":"EARTH","MEAN_MOTION_DDOT":"0.0000000000000","OBJECT_TYPE":"PAYLOAD","INCLINATION":"53.0406","SITE":"AFETR","SEMIMAJOR_AXIS":"6925.362","ELEMENT_SET_NO":"999","OBJECT_NAME":"STARLINK-2492","REV_AT_EPOCH":"2459","EPOCH":"2021-09-05T14:59:43.587456","RCS_SIZE":"LARGE","EPHEMERIS_TYPE":"0","PERIOD":"95.592","DECAY_DATE":null,"TLE_LINE2":"2 48149  53.0406 341.1502 0001169 141.6050 218.5022 15.06395712 24595","GP_ID":"184165902","NORAD_CAT_ID":"48149","TLE_LINE1":"1 48149U 21027BK  21248.62481004  .00001151  00000-0  96125-4 0  9995","TIME_SYSTEM":"UTC","MEAN_MOTION_DOT":"0.00001151","MEAN_ANOMALY":"218.5022","OBJECT_ID":"2021-027BK","APOAPSIS":"548.036","COUNTRY_CODE":"US","FILE":"3109348","ARG_OF_PERICENTER":"141.6050","CLASSIFICATION_TYPE":"U","ECCENTRICITY":"0.00011690"},{"MEAN_MOTION_DDOT":"0.0000000000000","OBJECT_TYPE":"PAYLOAD","INCLINATION":"53.0698","CENTER_NAME":"EARTH","SEMIMAJOR_AXIS":"6925.323","ELEMENT_SET_NO":"999","OBJECT_NAME":"STARLINK-2493","REV_AT_EPOCH":"2461","SITE":"AFETR","LAUNCH_DATE":"2021-04-07","REF_FRAME":"TEME","RA_OF_ASC_NODE":"340.7041","MEAN_MOTION":"15.06408389","MEAN_ELEMENT_THEORY":"SGP4","BSTAR":"0.00023354000000","PERIAPSIS":"546.503","MEAN_ANOMALY":"246.3425","OBJECT_ID":"2021-027BL","TIME_SYSTEM":"UTC","MEAN_MOTION_DOT":"0.00003200","FILE":"3109348","ARG_OF_PERICENTER":"113.7667","CLASSIFICATION_TYPE":"U","ECCENTRICITY":"0.00009890","APOAPSIS":"547.873","COUNTRY_CODE":"US","EPHEMERIS_TYPE":"0","PERIOD":"95.592","EPOCH":"2021-09-05T16:40:34.534560","RCS_SIZE":"LARGE","TLE_LINE1":"1 48150U 21027BL  21248.69484415  .00003200  00000-0  23354-3 0  9993","DECAY_DATE":null,"GP_ID":"184166654","TLE_LINE2":"2 48150  53.0698 340.7041 0000989 113.7667 246.3425 15.06408389 24610","NORAD_CAT_ID":"48150"},{"ARG_OF_PERICENTER":"122.4712","FILE":"3109348","ECCENTRICITY":"0.00011860","CLASSIFICATION_TYPE":"U","APOAPSIS":"548.031","COUNTRY_CODE":"US","MEAN_ANOMALY":"237.6392","OBJECT_ID":"2021-027BM","MEAN_MOTION_DOT":"0.00001631","TIME_SYSTEM":"UTC","TLE_LINE1":"1 48151U 21027BM  21248.69853499  .00001631  00000-0  12836-3 0  9995","DECAY_DATE":null,"TLE_LINE2":"2 48151  53.0675 340.7042 0001186 122.4712 237.6392 15.06401335 24615","NORAD_CAT_ID":"48151","GP_ID":"184166901","EPHEMERIS_TYPE":"0","PERIOD":"95.592","RCS_SIZE":"LARGE","EPOCH":"2021-09-05T16:45:53.423136","ELEMENT_SET_NO":"999","SEMIMAJOR_AXIS":"6925.344","REV_AT_EPOCH":"2461","OBJECT_NAME":"STARLINK-2503","SITE":"AFETR","OBJECT_TYPE":"PAYLOAD","MEAN_MOTION_DDOT":"0.0000000000000","INCLINATION":"53.0675","CENTER_NAME":"EARTH","MEAN_ELEMENT_THEORY":"SGP4","BSTAR":"0.00012836000000","PERIAPSIS":"546.388","LAUNCH_DATE":"2021-04-07","REF_FRAME":"TEME","RA_OF_ASC_NODE":"340.7042","MEAN_MOTION":"15.06401335"},{"SITE":"AFETR","REV_AT_EPOCH":"369","OBJECT_NAME":"STARLINK-2567","SEMIMAJOR_AXIS":"6727.992","ELEMENT_SET_NO":"999","CENTER_NAME":"EARTH","INCLINATION":"53.0480","OBJECT_TYPE":"PAYLOAD","MEAN_MOTION_DDOT":"0.0000000000000","PERIAPSIS":"347.175","BSTAR":"0.00025669000000","MEAN_ELEMENT_THEORY":"SGP4","MEAN_MOTION":"15.73165988","RA_OF_ASC_NODE":"245.1246","REF_FRAME":"TEME","LAUNCH_DATE":"2021-04-29","COUNTRY_CODE":"US","APOAPSIS":"352.539","ECCENTRICITY":"0.00039860","CLASSIFICATION_TYPE":"U","ARG_OF_PERICENTER":"2.5174","FILE":"3109348","MEAN_MOTION_DOT":"0.00035521","TIME_SYSTEM":"UTC","OBJECT_ID":"2021-036A","MEAN_ANOMALY":"110.5206","GP_ID":"184165416","TLE_LINE2":"2 48276  53.0480 245.1246 0003986   2.5174 110.5206 15.73165988  3694","NORAD_CAT_ID":"48276","DECAY_DATE":null,"TLE_LINE1":"1 48276U 21036A   21248.75001157  .00035521  00000-0  25669-3 0  9999","RCS_SIZE":"LARGE","EPOCH":"2021-09-05T18:00:00.999648","PERIOD":"91.535","EPHEMERIS_TYPE":"0"},{"MEAN_ELEMENT_THEORY":"SGP4","BSTAR":"0.00026914000000","PERIAPSIS":"347.134","LAUNCH_DATE":"2021-04-29","REF_FRAME":"TEME","MEAN_MOTION":"15.73169943","RA_OF_ASC_NODE":"245.1246","ELEMENT_SET_NO":"999","SEMIMAJOR_AXIS":"6727.981","OBJECT_NAME":"STARLINK-2569","REV_AT_EPOCH":"369","SITE":"AFETR","MEAN_MOTION_DDOT":"0.0000000000000","OBJECT_TYPE":"PAYLOAD","INCLINATION":"53.0481","CENTER_NAME":"EARTH","TLE_LINE1":"1 48277U 21036B   21248.75001157  .00037289  00000-0  26914-3 0  9997","DECAY_DATE":null,"TLE_LINE2":"2 48277  53.0481 245.1246 0004030   4.2620 109.4051 15.73169943  3692","NORAD_CAT_ID":"48277","GP_ID":"184166168","EPHEMERIS_TYPE":"0","PERIOD":"91.535","EPOCH":"2021-09-05T18:00:00.999648","RCS_SIZE":"LARGE","FILE":"3109348","ARG_OF_PERICENTER":"4.2620","CLASSIFICATION_TYPE":"U","ECCENTRICITY":"0.00040300","APOAPSIS":"352.557","COUNTRY_CODE":"US","MEAN_ANOMALY":"109.4051","OBJECT_ID":"2021-036B","TIME_SYSTEM":"UTC","MEAN_MOTION_DOT":"0.00037289"},{"RCS_SIZE":"LARGE","EPOCH":"2021-09-05T18:00:00.999648","EPHEMERIS_TYPE":"0","PERIOD":"91.534","DECAY_DATE":null,"GP_ID":"184166415","TLE_LINE2":"2 48278  53.0482 245.1222 0004007   5.2642 109.0100 15.73188184  3685","NORAD_CAT_ID":"48278","TLE_LINE1":"1 48278U 21036C   21248.75001157  .00041819  00000-0  30091-3 0  9993","MEAN_MOTION_DOT":"0.00041819","TIME_SYSTEM":"UTC","MEAN_ANOMALY":"109.0100","OBJECT_ID":"2021-036C","APOAPSIS":"352.490","COUNTRY_CODE":"US","ARG_OF_PERICENTER":"5.2642","FILE":"3109348","ECCENTRICITY":"0.00040070","CLASSIFICATION_TYPE":"U","RA_OF_ASC_NODE":"245.1222","MEAN_MOTION":"15.73188184","LAUNCH_DATE":"2021-04-29","REF_FRAME":"TEME","BSTAR":"0.00030091000000","PERIAPSIS":"347.098","MEAN_ELEMENT_THEORY":"SGP4","CENTER_NAME":"EARTH","OBJECT_TYPE":"PAYLOAD","MEAN_MOTION_DDOT":"0.0000000000000","INCLINATION":"53.0482","SITE":"AFETR","ELEMENT_SET_NO":"999","SEMIMAJOR_AXIS":"6727.929","REV_AT_EPOCH":"368","OBJECT_NAME":"STARLINK-2543"},{"REV_AT_EPOCH":"368","OBJECT_NAME":"STARLINK-2580","ELEMENT_SET_NO":"999","SEMIMAJOR_AXIS":"6727.960","SITE":"AFETR","INCLINATION":"53.0480","OBJECT_TYPE":"PAYLOAD","MEAN_MOTION_DDOT":"0.0000000000000","CENTER_NAME":"EARTH","MEAN_ELEMENT_THEORY":"SGP4","PERIAPSIS":"347.197","BSTAR":"0.00027309000000","REF_FRAME":"TEME","LAUNCH_DATE":"2021-04-29","MEAN_MOTION":"15.73177377","RA_OF_ASC_NODE":"245.1207","ECCENTRICITY":"0.00039060","CLASSIFICATION_TYPE":"U","ARG_OF_PERICENTER":"6.5116","FILE":"3109348","COUNTRY_CODE":"US","APOAPSIS":"352.453","OBJECT_ID":"2021-036D","MEAN_ANOMALY":"108.3956","MEAN_MOTION_DOT":"0.00037859","TIME_SYSTEM":"UTC","TLE_LINE1":"1 48279U 21036D   21248.75001157  .00037859  00000-0  27309-3 0  9991","TLE_LINE2":"2 48279  53.0480 245.1207 0003906   6.5116 108.3956 15.73177377  3687","GP_ID":"184165667","NORAD_CAT_ID":"48279","DECAY_DATE":null,"PERIOD":"91.534","EPHEMERIS_TYPE":"0","RCS_SIZE":"LARGE","EPOCH":"2021-09-05T18:00:00.999648"}];
